OBJECT_NAME,OBJECT_ID,EPOCH,MEAN_MOTION,ECCENTRICITY,INCLINATION,RA_OF_ASC_NODE,ARG_OF_PERICENTER,MEAN_ANOMALY,EPHEMERIS_TYPE,CLASSIFICATION_TYPE,NORAD_CAT_ID,ELEMENT_SET_NO,REV_AT_EPOCH,BSTAR,MEAN_MOTION_DOT,MEAN_MOTION_DDOT
OSCAR 7 (AO-7),1974-089B,2026-06-30T11:49:48.435744,12.53698351,.00126503,101.9899,194.8782,105.4653,62.9717,0,U,7530,999,36218,.93300358E-4,-.31E-6,0
PHASE 3B (AO-10),1983-058B,2026-06-29T23:51:36.200736,2.05871195,.60065195,25.9232,217.4494,119.1882,313.2024,0,U,14129,999,29575,0,-.15E-5,0
UOSAT 2 (UO-11),1984-021B,2026-06-30T10:39:15.879456,14.90816407,.00086798,97.8066,146.8710,132.2149,227.9807,0,U,14781,999,25910,.15424124E-3,.1463E-4,0
LUSAT (LO-19),1990-005G,2026-06-30T12:11:11.723712,14.34127067,.00118828,98.8846,203.6802,161.9556,198.2052,0,U,20442,999,90430,.58343762E-4,.117E-5,0
EYESAT A (AO-27),1993-061C,2026-06-30T03:29:34.987776,14.30945530,.00094117,98.6876,248.5541,66.2807,293.9362,0,U,22825,999,70885,.55321286E-4,.101E-5,0
ITAMSAT (IO-26),1993-061D,2026-06-30T04:35:01.715712,14.31372817,.00097406,98.6824,248.5184,50.8526,309.3521,0,U,22826,999,70917,.5435777E-4,.99E-6,0
RADIO ROSTO (RS15),1994-085A,2026-06-30T12:11:34.120320,11.27583443,.01563903,64.8174,281.6733,1.4131,358.7206,0,U,23439,999,29740,.8222192E-4,-.4E-6,0
JAS-2 (FO-29),1996-046B,2026-06-30T11:18:40.636224,13.53274914,.03508359,98.5227,28.5229,62.0613,301.5579,0,U,24278,999,47496,.10399748E-4,-.23E-6,0
TECHSAT 1B (GO-32),1998-043D,2026-06-30T11:32:20.406336,14.24430945,.00017001,99.0072,174.5750,138.6209,221.5098,0,U,25397,999,45322,.46516052E-4,.61E-6,0
ISS (ZARYA),1998-067A,2026-06-30T12:58:41.491200,15.49489460,.00042879,51.6313,233.9888,251.0038,109.0487,0,U,25544,999,57382,.10480906E-3,.5426E-4,0
PCSAT (NO-44),2001-043C,2026-06-30T10:19:05.019744,14.31960263,.00060294,67.0490,210.0201,265.4507,94.5906,0,U,26931,999,29234,.68747198E-4,.101E-5,0
SAUDISAT 1C (SO-50),2002-058C,2026-06-30T05:41:21.812064,14.83073203,.00749557,64.5520,88.6095,260.0398,99.2242,0,U,27607,999,26639,.12484524E-3,.912E-5,0
CUTE-1 (CO-55),2003-031E,2026-06-29T23:06:24.280128,14.24343456,.00103009,98.6736,189.3610,142.4898,217.7002,0,U,27844,999,19349,.1534011E-3,.311E-5,0
CUBESAT XI-IV (CO-57),2003-031J,2026-06-29T22:59:01.208832,14.23627529,.00097859,98.6768,189.0585,160.0224,200.1339,0,U,27848,999,19319,.13524458E-3,.265E-5,0
MOZHAETS 4 (RS22),2003-042A,2026-06-30T14:17:15.096768,14.73489818,.00102072,98.3465,6.3329,221.8433,228.3349,0,U,27939,999,21752,.10432064E-3,.624E-5,0
CUBESAT XI-V,2005-043F,2026-06-30T09:07:31.727712,14.72666866,.00145552,98.2997,337.2799,159.1785,201.0018,0,U,28895,999,10369,.23930319E-3,.1474E-4,0
CUTE-1.7+APD II (CO-65),2008-021C,2026-06-30T13:44:39.520032,15.09575913,.00083791,97.8276,163.2708,355.1087,5.0058,0,U,32785,999,98721,.347191E-3,.5513E-4,0
SEEDS II (CO-66),2008-021J,2026-06-30T10:50:25.278144,15.33195659,.00011439,97.7515,179.9864,194.0088,166.1122,0,U,32791,999,98932,.52224958E-3,.16684E-3,0
YUBILEINY (RS30),2008-025A,2026-06-30T12:55:08.920416,12.43180188,.00185189,82.5041,347.1334,283.0374,76.8638,0,U,32953,999,82135,.86684614E-4,.22E-6,0
KKS-1 (KISEKI),2009-002H,2026-06-30T13:08:06.978336,14.83156997,.00064661,98.1185,104.2013,242.8893,117.1661,0,U,33499,999,93817,.16845936E-3,.1319E-4,0
SWISSCUBE,2009-051B,2026-06-29T16:32:06.198432,14.62504487,.00068682,98.4026,88.7947,162.6436,197.5001,0,U,35932,999,89098,.20491881E-3,.99E-5,0
BEESAT-1,2009-051C,2026-06-30T12:37:55.598880,14.61741181,.00051336,98.3953,89.2540,171.1167,189.0125,0,U,35933,999,89113,.17585542E-3,.828E-5,0
ITUPSAT1,2009-051E,2026-06-29T16:57:44.860608,14.60458458,.00069532,98.4038,87.6006,190.2945,169.8114,0,U,35935,999,89056,.16667647E-3,.759E-5,0
XIWANG-1 (HOPE-1),2009-072B,2026-06-30T13:02:58.151904,13.16439206,.00071481,100.4029,135.1632,198.8104,161.2746,0,U,36122,999,79476,.23210338E-3,.44E-6,0
O/OREOS (USA 219),2010-062C,2026-06-30T01:17:55.004640,14.93797573,.00130865,71.9709,51.1931,35.6256,324.5785,0,U,37224,999,11856,.23293588E-3,.2413E-4,0
JUGNU,2011-058B,2026-06-29T12:31:59.134080,14.13779747,.00183885,19.9594,233.4895,212.2255,288.6400,0,U,37839,999,76077,.71335275E-4,.404E-5,0
SRMSAT,2011-058D,2026-06-30T12:09:24.841728,14.11578316,.00117844,19.9734,338.8527,350.9994,51.1229,0,U,37841,999,75970,.65689457E-4,.386E-5,0
STRAND-1,2013-009E,2026-06-30T11:49:53.734656,14.37171160,.00084907,98.3924,1.4000,183.0829,177.0307,0,U,39090,999,69897,.11203189E-3,.291E-5,0
ZACUBE-1 (TSHEPISOSAT),2013-066B,2026-06-30T11:18:56.914848,15.01258663,.00426621,97.8044,143.8762,202.7803,157.1529,0,U,39417,999,68272,.21666338E-3,.2774E-4,0
GOMX-1,2013-066Q,2026-06-30T12:46:04.331712,14.69504380,.01295267,97.6473,21.1523,35.1627,325.8042,0,U,39430,999,67187,.25714973E-3,.1683E-4,0
